{"spkid": "50005919", "covariance": {"data": [["8.057718244756963E-12", "-1.629742642237618E-11", "1.384401593583262E-9", "-2.718153451581983E-12", "2.87404711882531E-9", "1.369767445725919E-10"], ["-1.629742642237618E-11", "3.296294319008856E-11", "-2.800076008435486E-9", "5.493364076438006E-12", "-5.813008986250052E-9", "-2.770440919987115E-10"], ["1.384401593583262E-9", "-2.800076008435486E-9", "2.385957917223837E-7", "-3.140477376684983E-10", "4.945767203913364E-7", "2.39174438776664E-8"], ["-2.718153451581983E-12", "5.493364076438006E-12", "-3.140477376684983E-10", "8.88407811706676E-10", "-1.673343852754256E-9", "-8.418040269827911E-10"], ["2.87404711882531E-9", "-5.813008986250052E-9", "4.945767203913364E-7", "-1.673343852754256E-9", "1.026833724308941E-6", "5.015974724407978E-8"], ["1.369767445725919E-10", "-2.770440919987115E-10", "2.39174438776664E-8", "-8.418040269827911E-10", "5.015974724407978E-8", "4.148751049170107E-9"]], "elements": [{"name": "e", "sigma": 2.83861202786801e-06, "title": "eccentricity", "value": ".5655069060690203", "units": null, "label": "e"}, {"name": "q", "sigma": 5.7413363592537e-06, "title": "perihelion distance", "value": ".8778177112382295", "units": "au", "label": "q"}, {"label": "tp", "name": "tp", "sigma": 0.000488462682016123, "value": "2454566.865106679093", "title": "time of perihelion passage", "units": "TDB"}, {"units": "deg", "title": "longitude of the ascending node", "value": "203.4068688141508", "sigma": 2.98061706984758e-05, "name": "om", "label": "node"}, {"label": "peri", "sigma": 0.00101332804377898, "name": "w", "units": "deg", "title": "argument of perihelion", "value": "231.7531026876066"}, {"units": "deg", "title": "inclination", "value": "4.152421860904745", "name": "i", "sigma": 6.44107991657463e-05, "label": "i"}], "labels": ["e", "q", "tp", "node", "peri", "i"], "epoch": "2454834.5"}, "elements": [{"label": "e", "units": null, "title": "eccentricity", "value": ".5658205278317027", "sigma": "2.7976E-6", "name": "e"}, {"name": "a", "sigma": "1.0645E-7", "units": "au", "title": "semi-major axis", "value": "2.017207814749087", "label": "a"}, {"title": "perihelion distance", "value": ".875830224261523", "units": "au", "name": "q", "sigma": "5.5976E-6", "label": "q"}, {"title": "inclination; angle with respect to x-y ecliptic plane", "value": "4.151598950730984", "units": "deg", "sigma": "6.4227E-5", "name": "i", "label": "i"}, {"label": "node", "sigma": "3.0571E-5", "name": "om", "title": "longitude of the ascending node", "value": "203.2377897707545", "units": "deg"}, {"label": "peri", "name": "w", "sigma": ".0010128", "title": "argument of perihelion", "value": "231.9947733815352", "units": "deg"}, {"units": "deg", "value": "119.088634352778", "title": "mean anomaly", "sigma": ".00023738", "name": "ma", "label": "M"}, {"units": "TDB", "value": "2460854.327787279825", "title": "time of perihelion passage", "sigma": ".00066265", "name": "tp", "label": "tp"}, {"value": "1046.464234446532", "title": "sidereal orbital period", "units": "d", "sigma": "8.2837E-5", "name": "per", "label": "period"}, {"label": "n", "name": "n", "sigma": "2.7232E-8", "units": "deg/d", "title": "mean motion", "value": ".3440155794625906"}, {"label": "Q", "units": "au", "title": "aphelion distance", "value": "3.158585405236651", "name": "ad", "sigma": "1.6669E-7"}], "epoch": "2461200.5"}